TRANSPORTER-12 OBJECT AZ
1 62656U 25009AZ  26068.71026235  .00016057  00000+0  54903-3 0  9991
2 62656  97.3981 151.9913 0000987  45.3581 314.7740 15.30349724 63792
STARLINK-36498          
1 67318U 26002P   26068.40238734  .00027959  00000+0  10208-2 0  9992
2 67318  42.9959 326.9974 0001034  22.2652 337.8245 15.27607877 11095
